STARLINK-35139          
1 66380U 25257A   25334.16671295 -.02118001  00000+0 -42928-1 0  9998
2 66380  53.1592 323.9722 0001543  84.6543 153.1002 15.49309878  4416
STARLINK-35158          
1 66381U 25257B   25334.16671295 -.02131953  00000+0 -43246-1 0  9994
2 66381  53.1595 323.9682 0001695  83.2991 156.3675 15.49309144  4478
STARLINK-35639          
1 66382U 25257C   25334.16671295 -.00058553  00000+0 -10513-2 0  9999
2 66382  53.1594 323.9632 0001609  88.3483 153.2474 15.49343707  4476
STARLINK-35690          
1 66383U 25257D   25334.16671295 -.00094739  00000+0 -17144-2 0  9993
2 66383  53.1594 323.9555 0001555  83.6565 161.7869 15.49334328  4471
STARLINK-35662          
1 66384U 25257E   25334.16671295 -.00113845  00000+0 -20657-2 0  9997
2 66384  53.1595 323.9525 0001777  82.1673 165.1921 15.49348915  4474
STARLINK-35659          
1 66385U 25257F   25334.16671295 -.00060262  00000+0 -10825-2 0  9998
2 66385  53.1595 323.9601 0001551  85.2829 158.2351 15.49343248  4471
STARLINK-35651          
1 66386U 25257G   25334.16671295 -.00138752  00000+0 -25257-2 0  9994
2 66386  53.1595 323.9483 0001629  85.9461 163.3134 15.49369256  4478
STARLINK-35661          
1 66387U 25257H   25334.16671295 -.00183420  00000+0 -33558-2 0  9990
2 66387  53.1596 323.9450 0001235  83.0420 168.0983 15.49408961  4472
STARLINK-35647          
1 66388U 25257J   25334.16671295 -.00112084  00000+0 -20328-2 0  9990
2 66388  53.1596 323.9408 0001240  77.8688 175.2165 15.49356480  4479
STARLINK-35694          
1 66389U 25257K   25334.16671295 -.00092280  00000+0 -16690-2 0  9993
2 66389  53.1596 323.9355 0001702  82.1214 172.8985 15.49337941  4472
STARLINK-35665          
1 66390U 25257L   25334.16671295 -.00111101  00000+0 -20152-2 0  9997
2 66390  53.1597 323.8642 0001777  82.0925 207.4377 15.49346413  4578
STARLINK-35656          
1 66391U 25257M   25334.16671295 -.01912635  00000+0 -44886-1 0  9999
2 66391  53.1590 323.6494 0000963  92.4537 299.8291 15.44769210  4574
