CCSDS_OMM_VERS = 2.0
CREATION_DATE  = 
ORIGINATOR     = 

OBJECT_NAME    = STARLINK-35139
OBJECT_ID      = 2025-257A
CENTER_NAME    = EARTH
REF_FRAME      = TEME
TIME_SYSTEM    = UTC
MEAN_ELEMENT_THEORY = SGP/SGP4

EPOCH          = 2025-11-30T04:00:03.998880
MEAN_MOTION    = 15.49309878
ECCENTRICITY   = .0001543
INCLINATION    = 53.1592
RA_OF_ASC_NODE = 323.9722
ARG_OF_PERICENTER = 84.6543
MEAN_ANOMALY   = 153.1002

EPHEMERIS_TYPE = 0
CLASSIFICATION_TYPE = U
NORAD_CAT_ID   = 66380
ELEMENT_SET_NO = 999
REV_AT_EPOCH   = 441
BSTAR          = -.42928E-1
MEAN_MOTION_DOT = -.2118001E-1
MEAN_MOTION_DDOT = 0

CCSDS_OMM_VERS = 2.0
CREATION_DATE  = 
ORIGINATOR     = 

OBJECT_NAME    = STARLINK-35158
OBJECT_ID      = 2025-257B
CENTER_NAME    = EARTH
REF_FRAME      = TEME
TIME_SYSTEM    = UTC
MEAN_ELEMENT_THEORY = SGP/SGP4

EPOCH          = 2025-11-30T04:00:03.998880
MEAN_MOTION    = 15.49309144
ECCENTRICITY   = .0001695
INCLINATION    = 53.1595
RA_OF_ASC_NODE = 323.9682
ARG_OF_PERICENTER = 83.2991
MEAN_ANOMALY   = 156.3675

EPHEMERIS_TYPE = 0
CLASSIFICATION_TYPE = U
NORAD_CAT_ID   = 66381
ELEMENT_SET_NO = 999
REV_AT_EPOCH   = 447
BSTAR          = -.43246E-1
MEAN_MOTION_DOT = -.2131953E-1
MEAN_MOTION_DDOT = 0

CCSDS_OMM_VERS = 2.0
CREATION_DATE  = 
ORIGINATOR     = 

OBJECT_NAME    = STARLINK-35639
OBJECT_ID      = 2025-257C
CENTER_NAME    = EARTH
REF_FRAME      = TEME
TIME_SYSTEM    = UTC
MEAN_ELEMENT_THEORY = SGP/SGP4

EPOCH          = 2025-11-30T04:00:03.998880
MEAN_MOTION    = 15.49343707
ECCENTRICITY   = .0001609
INCLINATION    = 53.1594
RA_OF_ASC_NODE = 323.9632
ARG_OF_PERICENTER = 88.3483
MEAN_ANOMALY   = 153.2474

EPHEMERIS_TYPE = 0
CLASSIFICATION_TYPE = U
NORAD_CAT_ID   = 66382
ELEMENT_SET_NO = 999
REV_AT_EPOCH   = 447
BSTAR          = -.10513E-2
MEAN_MOTION_DOT = -.58553E-3
MEAN_MOTION_DDOT = 0

CCSDS_OMM_VERS = 2.0
CREATION_DATE  = 
ORIGINATOR     = 

OBJECT_NAME    = STARLINK-35690
OBJECT_ID      = 2025-257D
CENTER_NAME    = EARTH
REF_FRAME      = TEME
TIME_SYSTEM    = UTC
MEAN_ELEMENT_THEORY = SGP/SGP4

EPOCH          = 2025-11-30T04:00:03.998880
MEAN_MOTION    = 15.49334328
ECCENTRICITY   = .0001555
INCLINATION    = 53.1594
RA_OF_ASC_NODE = 323.9555
ARG_OF_PERICENTER = 83.6565
MEAN_ANOMALY   = 161.7869

EPHEMERIS_TYPE = 0
CLASSIFICATION_TYPE = U
NORAD_CAT_ID   = 66383
ELEMENT_SET_NO = 999
REV_AT_EPOCH   = 447
BSTAR          = -.17144E-2
MEAN_MOTION_DOT = -.94739E-3
MEAN_MOTION_DDOT = 0

CCSDS_OMM_VERS = 2.0
CREATION_DATE  = 
ORIGINATOR     = 

OBJECT_NAME    = STARLINK-35662
OBJECT_ID      = 2025-257E
CENTER_NAME    = EARTH
REF_FRAME      = TEME
TIME_SYSTEM    = UTC
MEAN_ELEMENT_THEORY = SGP/SGP4

EPOCH          = 2025-11-30T04:00:03.998880
MEAN_MOTION    = 15.49348915
ECCENTRICITY   = .0001777
INCLINATION    = 53.1595
RA_OF_ASC_NODE = 323.9525
ARG_OF_PERICENTER = 82.1673
MEAN_ANOMALY   = 165.1921

EPHEMERIS_TYPE = 0
CLASSIFICATION_TYPE = U
NORAD_CAT_ID   = 66384
ELEMENT_SET_NO = 999
REV_AT_EPOCH   = 447
BSTAR          = -.20657E-2
MEAN_MOTION_DOT = -.113845E-2
MEAN_MOTION_DDOT = 0

CCSDS_OMM_VERS = 2.0
CREATION_DATE  = 
ORIGINATOR     = 

OBJECT_NAME    = STARLINK-35659
OBJECT_ID      = 2025-257F
CENTER_NAME    = EARTH
REF_FRAME      = TEME
TIME_SYSTEM    = UTC
MEAN_ELEMENT_THEORY = SGP/SGP4

EPOCH          = 2025-11-30T04:00:03.998880
MEAN_MOTION    = 15.49343248
ECCENTRICITY   = .0001551
INCLINATION    = 53.1595
RA_OF_ASC_NODE = 323.9601
ARG_OF_PERICENTER = 85.2829
MEAN_ANOMALY   = 158.2351

EPHEMERIS_TYPE = 0
CLASSIFICATION_TYPE = U
NORAD_CAT_ID   = 66385
ELEMENT_SET_NO = 999
REV_AT_EPOCH   = 447
BSTAR          = -.10825E-2
MEAN_MOTION_DOT = -.60262E-3
MEAN_MOTION_DDOT = 0

CCSDS_OMM_VERS = 2.0
CREATION_DATE  = 
ORIGINATOR     = 

OBJECT_NAME    = STARLINK-35651
OBJECT_ID      = 2025-257G
CENTER_NAME    = EARTH
REF_FRAME      = TEME
TIME_SYSTEM    = UTC
MEAN_ELEMENT_THEORY = SGP/SGP4

EPOCH          = 2025-11-30T04:00:03.998880
MEAN_MOTION    = 15.49369256
ECCENTRICITY   = .0001629
INCLINATION    = 53.1595
RA_OF_ASC_NODE = 323.9483
ARG_OF_PERICENTER = 85.9461
MEAN_ANOMALY   = 163.3134

EPHEMERIS_TYPE = 0
CLASSIFICATION_TYPE = U
NORAD_CAT_ID   = 66386
ELEMENT_SET_NO = 999
REV_AT_EPOCH   = 447
BSTAR          = -.25257E-2
MEAN_MOTION_DOT = -.138752E-2
MEAN_MOTION_DDOT = 0

CCSDS_OMM_VERS = 2.0
CREATION_DATE  = 
ORIGINATOR     = 

OBJECT_NAME    = STARLINK-35661
OBJECT_ID      = 2025-257H
CENTER_NAME    = EARTH
REF_FRAME      = TEME
TIME_SYSTEM    = UTC
MEAN_ELEMENT_THEORY = SGP/SGP4

EPOCH          = 2025-11-30T04:00:03.998880
MEAN_MOTION    = 15.49408961
ECCENTRICITY   = .0001235
INCLINATION    = 53.1596
RA_OF_ASC_NODE = 323.9450
ARG_OF_PERICENTER = 83.0420
MEAN_ANOMALY   = 168.0983

EPHEMERIS_TYPE = 0
CLASSIFICATION_TYPE = U
NORAD_CAT_ID   = 66387
ELEMENT_SET_NO = 999
REV_AT_EPOCH   = 447
BSTAR          = -.33558E-2
MEAN_MOTION_DOT = -.18342E-2
MEAN_MOTION_DDOT = 0

CCSDS_OMM_VERS = 2.0
CREATION_DATE  = 
ORIGINATOR     = 

OBJECT_NAME    = STARLINK-35647
OBJECT_ID      = 2025-257J
CENTER_NAME    = EARTH
REF_FRAME      = TEME
TIME_SYSTEM    = UTC
MEAN_ELEMENT_THEORY = SGP/SGP4

EPOCH          = 2025-11-30T04:00:03.998880
MEAN_MOTION    = 15.49356480
ECCENTRICITY   = .000124
INCLINATION    = 53.1596
RA_OF_ASC_NODE = 323.9408
ARG_OF_PERICENTER = 77.8688
MEAN_ANOMALY   = 175.2165

EPHEMERIS_TYPE = 0
CLASSIFICATION_TYPE = U
NORAD_CAT_ID   = 66388
ELEMENT_SET_NO = 999
REV_AT_EPOCH   = 447
BSTAR          = -.20328E-2
MEAN_MOTION_DOT = -.112084E-2
MEAN_MOTION_DDOT = 0

CCSDS_OMM_VERS = 2.0
CREATION_DATE  = 
ORIGINATOR     = 

OBJECT_NAME    = STARLINK-35694
OBJECT_ID      = 2025-257K
CENTER_NAME    = EARTH
REF_FRAME      = TEME
TIME_SYSTEM    = UTC
MEAN_ELEMENT_THEORY = SGP/SGP4

EPOCH          = 2025-11-30T04:00:03.998880
MEAN_MOTION    = 15.49337941
ECCENTRICITY   = .0001702
INCLINATION    = 53.1596
RA_OF_ASC_NODE = 323.9355
ARG_OF_PERICENTER = 82.1214
MEAN_ANOMALY   = 172.8985

EPHEMERIS_TYPE = 0
CLASSIFICATION_TYPE = U
NORAD_CAT_ID   = 66389
ELEMENT_SET_NO = 999
REV_AT_EPOCH   = 447
BSTAR          = -.1669E-2
MEAN_MOTION_DOT = -.9228E-3
MEAN_MOTION_DDOT = 0

CCSDS_OMM_VERS = 2.0
CREATION_DATE  = 
ORIGINATOR     = 

OBJECT_NAME    = STARLINK-35665
OBJECT_ID      = 2025-257L
CENTER_NAME    = EARTH
REF_FRAME      = TEME
TIME_SYSTEM    = UTC
MEAN_ELEMENT_THEORY = SGP/SGP4

EPOCH          = 2025-11-30T04:00:03.998880
MEAN_MOTION    = 15.49346413
ECCENTRICITY   = .0001777
INCLINATION    = 53.1597
RA_OF_ASC_NODE = 323.8642
ARG_OF_PERICENTER = 82.0925
MEAN_ANOMALY   = 207.4377

EPHEMERIS_TYPE = 0
CLASSIFICATION_TYPE = U
NORAD_CAT_ID   = 66390
ELEMENT_SET_NO = 999
REV_AT_EPOCH   = 457
BSTAR          = -.20152E-2
MEAN_MOTION_DOT = -.111101E-2
MEAN_MOTION_DDOT = 0

CCSDS_OMM_VERS = 2.0
CREATION_DATE  = 
ORIGINATOR     = 

OBJECT_NAME    = STARLINK-35656
OBJECT_ID      = 2025-257M
CENTER_NAME    = EARTH
REF_FRAME      = TEME
TIME_SYSTEM    = UTC
MEAN_ELEMENT_THEORY = SGP/SGP4

EPOCH          = 2025-11-30T04:00:03.998880
MEAN_MOTION    = 15.44769210
ECCENTRICITY   = .0000963
INCLINATION    = 53.1590
RA_OF_ASC_NODE = 323.6494
ARG_OF_PERICENTER = 92.4537
MEAN_ANOMALY   = 299.8291

EPHEMERIS_TYPE = 0
CLASSIFICATION_TYPE = U
NORAD_CAT_ID   = 66391
ELEMENT_SET_NO = 999
REV_AT_EPOCH   = 457
BSTAR          = -.44886E-1
MEAN_MOTION_DOT = -.1912635E-1
MEAN_MOTION_DDOT = 0

